[{"OBJECT_NAME":"STARLINK-32010","OBJECT_ID":"2024-132B","EPOCH":"2026-03-09T22:21:18.698688","MEAN_MOTION":15.30183516,"ECCENTRICITY":0.00014181,"INCLINATION":53.1617,"RA_OF_ASC_NODE":51.5778,"ARG_OF_PERICENTER":94.2142,"MEAN_ANOMALY":265.902,"EPHEMERIS_TYPE":0,"CLASSIFICATION_TYPE":"U","NORAD_CAT_ID":60279,"ELEMENT_SET_NO":999,"REV_AT_EPOCH":9159,"BSTAR":1.6771462e-5,"MEAN_MOTION_DOT":1.37e-6,"MEAN_MOTION_DDOT":0},{"OBJECT_NAME":"JINJUSAT-1B","OBJECT_ID":"2025-052A","EPOCH":"2026-03-09T15:55:38.242848","MEAN_MOTION":15.30194857,"ECCENTRICITY":0.00055504,"INCLINATION":97.4113,"RA_OF_ASC_NODE":325.4613,"ARG_OF_PERICENTER":82.193,"MEAN_ANOMALY":277.9941,"EPHEMERIS_TYPE":0,"CLASSIFICATION_TYPE":"U","NORAD_CAT_ID":63210,"ELEMENT_SET_NO":999,"REV_AT_EPOCH":5486,"BSTAR":0.00068430401,"MEAN_MOTION_DOT":0.00019955,"MEAN_MOTION_DDOT":0}]
